NORAD_CAT_ID,OBJECT_NAME,OBJECT_TYPE,EPOCH,MEAN_MOTION,ECCENTRICITY,INCLINATION,RA_OF_ASC_NODE,ARG_OF_PERICENTER,MEAN_ANOMALY,BSTAR,MEAN_MOTION_DOT,MEAN_MOTION_DDOT,TLE_LINE0,TLE_LINE1,TLE_LINE2,SEMIMAJOR_AXIS,PERIOD,APOGEE,PERIGEE,DECAYED
51875.0,STARLINK-3585,PAYLOAD,2022-06-06 22:00:00,15.08855326,0.0001633,53.2153,47.2327,63.4356,40.6442,-0.0013311,-0.00021419,0.0,0 STARLINK-3585,1 51875U 22022Z   22157.91667824 -.00021419  00000-0 -13311-2 0  9994,2 51875  53.2153  47.2327 0001633  63.4356  40.6442 15.08855326 16024,6917.834,95.437,540.828,538.569,0.0
51875.0,STARLINK-3585,PAYLOAD,2022-06-07 14:00:01,15.08813278,0.0001447,53.2157,44.2383,66.4257,60.8773,0.0029221,0.0004649,0.0,0 STARLINK-3585,1 51875U 22022Z   22158.58334491  .00046490  00000-0  29221-2 0  9990,2 51875  53.2157  44.2383 0001447  66.4257  60.8773 15.08813278  1309,6917.962,95.439,540.828,538.826,0.0
51875.0,STARLINK-3585,PAYLOAD,2022-06-07 22:00:00,15.08853452,0.0001585999999999,53.2159,42.7433,62.1214,76.7707,-0.00078723,-0.000128,0.0,0 STARLINK-3585,1 51875U 22022Z   22158.91667824 -.00012800  00000-0 -78723-3 0  9998,2 51875  53.2159  42.7433 0001586  62.1214  76.7707 15.08853452 16172,6917.839,95.437,540.8009999999998,538.607,0.0
51875.0,STARLINK-3585,PAYLOAD,2022-06-08 14:00:01,15.08816964,0.000157,53.2161,39.7489,69.6668,92.4389,0.0025246,0.00040095,0.0,0 STARLINK-3585,1 51875U 22022Z   22159.58334491  .00040095  00000-0  25246-2 0  9999,2 51875  53.2161  39.7489 0001570  69.6668  92.4389 15.08816964  1307,6917.951,95.439,540.9019999999998,538.73,0.0
51875.0,STARLINK-3585,PAYLOAD,2022-06-08 22:00:01,15.0883867,0.0001633,53.2163,38.2541,63.7707,109.9799,-0.002919,-0.00046443,0.0,0 STARLINK-3585,1 51875U 22022Z   22159.91668981 -.00046443  00000-0 -29190-2 0  9997,2 51875  53.2163  38.2541 0001633  63.7707 109.9799 15.08838670 16326,6917.884,95.438,540.879,538.62,0.0
51875.0,STARLINK-3585,PAYLOAD,2022-06-09 14:00:01,15.08806434,0.0001481,53.2163,35.2599,70.7006,126.1316,0.0024601,0.00039046,0.0,0 STARLINK-3585,1 51875U 22022Z   22160.58334491  .00039046  00000-0  24601-2 0  9999,2 51875  53.2163  35.2599 0001481  70.7006 126.1316 15.08806434  1308,6917.983,95.44,540.873,538.823,0.0
51875.0,STARLINK-3585,PAYLOAD,2022-06-09 22:00:00,15.0883111,0.0001592,53.2163,33.7654,64.6349,143.7711,-0.00055476,-9.104e-05,0.0,0 STARLINK-3585,1 51875U 22022Z   22160.91667824 -.00009104  00000-0 -55476-3 0  9994,2 51875  53.2163  33.7654 0001592  64.6349 143.7711 15.08831110  1301,6917.908,95.438,540.874,538.6709999999998,0.0
51875.0,STARLINK-3585,PAYLOAD,2022-06-10 00:00:00,15.08818866,0.0001626999999999,53.2164,33.3916,63.3823,237.9222,0.0012547,0.00019725,0.0,0 STARLINK-3585,1 51875U 22022Z   22161.00001157  .00019725  00000-0  12547-2 0  9995,2 51875  53.2164  33.3916 0001627  63.3823 237.9222 15.08818866 16482,6917.945,95.439,540.936,538.684,0.0
51875.0,STARLINK-3585,PAYLOAD,2022-06-10 14:00:01,15.08828387,0.0001485,53.2161,30.7707,73.2288,158.3551,0.0023477,0.00037262,0.0,0 STARLINK-3585,1 51875U 22022Z   22161.58334491  .00037262  00000-0  23477-2 0  9998,2 51875  53.2161  30.7707 0001485  73.2288 158.3551 15.08828387  1300,6917.916,95.438,540.808,538.754,0.0
51875.0,STARLINK-3585,PAYLOAD,2022-06-10 22:00:00,15.08851011,0.0001579,53.216,29.2762,66.2205,176.9626,-0.00063595,-0.00010398,0.0,0 STARLINK-3585,1 51875U 22022Z   22161.91667824 -.00010398  00000-0 -63595-3 0  9993,2 51875  53.2160  29.2762 0001579  66.2205 176.9626 15.08851011  1307,6917.847,95.437,540.804,538.619,0.0
51875.0,STARLINK-3585,PAYLOAD,2022-06-11 06:00:00,15.08864061,0.0001472,53.2155,27.7792,64.9689,189.8167,-0.0036387,-0.00057771,0.0,0 STARLINK-3585,1 51875U 22022Z   22162.25001157 -.00057771  00000-0 -36387-2 0  9996,2 51875  53.2155  27.7792 0001472  64.9689 189.8167 15.08864061 16678,6917.807,95.436,540.69,538.654,0.0
51875.0,STARLINK-3585,PAYLOAD,2022-06-11 22:00:00,15.0883682,0.0001520999999999,53.2155,24.7872,65.4661,212.5043,0.00018055,2.586e-05,0.0,0 STARLINK-3585,1 51875U 22022Z   22162.91667824  .00002586  00000-0  18055-3 0  9993,2 51875  53.2155  24.7872 0001521  65.4661 212.5043 15.08836820 16775,6917.89,95.438,540.807,538.703,0.0
51875.0,STARLINK-3585,PAYLOAD,2022-06-12 14:00:01,15.08851649,0.0001512,53.2153,21.7925,74.3199,226.8523,-0.00099299,-0.00016062,0.0,0 STARLINK-3585,1 51875U 22022Z   22163.58334491 -.00016062  00000-0 -99299-3 0  9993,2 51875  53.2153  21.7925 0001512  74.3199 226.8523 15.08851649  1304,6917.845,95.437,540.756,538.664,0.0
51875.0,STARLINK-3585,PAYLOAD,2022-06-12 22:00:00,15.08826494,0.0001695,53.2153,20.2979,67.1879,245.591,0.00052599,8.09e-05,0.0,0 STARLINK-3585,1 51875U 22022Z   22163.91667824  .00008090  00000-0  52599-3 0  9991,2 51875  53.2153  20.2979 0001695  67.1879 245.5910 15.08826494  1302,6917.922,95.438,540.9590000000002,538.614,0.0
51875.0,STARLINK-3585,PAYLOAD,2022-06-13 06:00:02,15.08860564,0.0001597,53.215,18.8006,66.7235,257.704,-0.0016706,-0.00026792,0.0,0 STARLINK-3585,1 51875U 22022Z   22164.25002315 -.00026792  00000-0 -16706-2 0  9997,2 51875  53.2150  18.8006 0001597  66.7235 257.7040 15.08860564 16979,6917.818,95.436,540.7869999999998,538.578,0.0
51875.0,STARLINK-3585,PAYLOAD,2022-06-13 14:00:01,15.08858611,0.0001545,53.2153,17.3031,73.6042,262.367,-0.0010930999999999,-0.00017651,0.0,0 STARLINK-3585,1 51875U 22022Z   22164.58334491 -.00017651  00000-0 -10931-2 0  9994,2 51875  53.2153  17.3031 0001545  73.6042 262.3670 15.08858611  1302,6917.824000000001,95.436,540.757,538.62,0.0
51875.0,STARLINK-3585,PAYLOAD,2022-06-13 22:00:00,15.08840594,0.0001582,53.2153,15.8084,63.8739,283.7127,-0.00050796,-8.363e-05,0.0,0 STARLINK-3585,1 51875U 22022Z   22164.91667824 -.00008363  00000-0 -50796-3 0  9994,2 51875  53.2153  15.8084 0001582  63.8739 283.7127 15.08840594 17074,6917.879,95.438,540.8380000000002,538.649,0.0
51875.0,STARLINK-3585,PAYLOAD,2022-06-14 14:00:01,15.08834871,0.0001385,53.2156,12.8136,69.8799,300.8767,4.7958e-05,4.75e-06,0.0,0 STARLINK-3585,1 51875U 22022Z   22165.58334491  .00000475  00000-0  47958-4 0  9990,2 51875  53.2156  12.8136 0001385  69.8799 300.8767 15.08834871  1306,6917.896,95.438,540.719,538.803,0.0
51875.0,STARLINK-3585,PAYLOAD,2022-06-14 22:00:00,15.08808667,0.0001466,53.2155,11.3189,60.2626,322.0871,0.00054803,8.437e-05,0.0,0 STARLINK-3585,1 51875U 22022Z   22165.91667824  .00008437  00000-0  54803-3 0  9998,2 51875  53.2155  11.3189 0001466  60.2626 322.0871 15.08808667  1307,6917.976,95.44,540.855,538.827,0.0
51875.0,STARLINK-3585,PAYLOAD,2022-06-15 06:00:00,15.08833578,0.0001359,53.2155,9.8212,61.5562,332.3527,-0.0014057,-0.00022586,0.0,0 STARLINK-3585,1 51875U 22022Z   22166.25001157 -.00022586  00000-0 -14057-2 0  9996,2 51875  53.2155   9.8212 0001359  61.5562 332.3527 15.08833578 17285,6917.9,95.438,540.705,538.825,0.0
51875.0,STARLINK-3585,PAYLOAD,2022-06-15 14:00:01,15.08828619,0.0001334,53.2159,8.3241,68.4639,337.0195,0.0013378,0.00021061,0.0,0 STARLINK-3585,1 51875U 22022Z   22166.58334491  .00021061  00000-0  13378-2 0  9992,2 51875  53.2159   8.3241 0001334  68.4639 337.0195 15.08828619  1308,6917.915,95.438,540.703,538.857,0.0
51875.0,STARLINK-3585,PAYLOAD,2022-06-15 22:00:00,15.08833818,0.0001474,53.2159,6.8294,59.5577,357.5228,0.0012849,0.00020217,0.0,0 STARLINK-3585,1 51875U 22022Z   22166.91667824  .00020217  00000-0  12849-2 0  9992,2 51875  53.2159   6.8294 0001474  59.5577 357.5228 15.08833818 17382,6917.899,95.438,540.784,538.745,0.0
51875.0,STARLINK-3585,PAYLOAD,2022-06-16 02:00:01,15.08859333,0.0001455,53.2156,6.0808,58.2422,184.6345,-0.0011715,-0.00018894,0.0,0 STARLINK-3585,1 51875U 22022Z   22167.08334491 -.00018894  00000-0 -11715-2 0  9993,2 51875  53.2156   6.0808 0001455  58.2422 184.6345 15.08859333  1300,6917.821,95.436,540.693,538.68,0.0
51875.0,STARLINK-3585,PAYLOAD,2022-06-19 14:00:01,15.08861438,0.0001437,53.217,350.3746,68.5589,115.9853,-0.0022968,-0.00036677,0.0,0 STARLINK-3585,1 51875U 22022Z   22170.58334491 -.00036677  00000-0 -22968-2 0  9993,2 51875  53.2170 350.3746 0001437  68.5589 115.9853 15.08861438  1300,6917.815,95.436,540.674,538.686,0.0
51875.0,STARLINK-3585,PAYLOAD,2022-06-19 20:00:01,15.08834922,0.0001604,53.2154,349.2465,65.757,37.504,0.0010131,0.0001587,0.0,0 STARLINK-3585,1 51875U 22022Z   22170.83334491  .00015870  00000-0  10131-2 0  9990,2 51875  53.2154 349.2465 0001604  65.7570  37.5040 15.08834922 17977,6917.896,95.438,540.871,538.651,0.0
51875.0,STARLINK-3585,PAYLOAD,2022-06-19 22:00:00,15.08820627,0.0001583,53.2154,348.8726,63.2423,132.9219,0.0033909,0.00054064,0.0,0 STARLINK-3585,1 51875U 22022Z   22170.91667824  .00054064  00000-0  33909-2 0  9994,2 51875  53.2154 348.8726 0001583  63.2423 132.9219 15.08820627  1303,6917.94,95.439,540.9,538.7090000000002,0.0
51875.0,STARLINK-3585,PAYLOAD,2022-06-20 14:00:01,15.08846086,0.0001455,53.2154,345.8784,70.1673,149.1872,-0.00055234,-9.069e-05,0.0,0 STARLINK-3585,1 51875U 22022Z   22171.58334491 -.00009069  00000-0 -55234-3 0  9992,2 51875  53.2154 345.8784 0001455  70.1673 149.1872 15.08846086 18081,6917.861999999999,95.437,540.7330000000002,538.72,0.0
51875.0,STARLINK-3585,PAYLOAD,2022-06-20 22:00:00,15.08831537,0.0001573,53.2153,344.3834,61.1408,169.8179,0.00091451,0.00014293,0.0,0 STARLINK-3585,1 51875U 22022Z   22171.91667824  .00014293  00000-0  91451-3 0  9992,2 51875  53.2153 344.3834 0001573  61.1408 169.8179 15.08831537  1308,6917.906,95.438,540.859,538.683,0.0
51875.0,STARLINK-3585,PAYLOAD,2022-06-21 14:00:01,15.08850564,0.000159,53.2155,341.3892,69.3608,184.7736,-0.00062202,-0.00010177,0.0,0 STARLINK-3585,1 51875U 22022Z   22172.58334491 -.00010177  00000-0 -62202-3 0  9998,2 51875  53.2155 341.3892 0001590  69.3608 184.7736 15.08850564  1308,6917.848000000001,95.437,540.813,538.613,0.0
